#dP2021  5  6  0  0  0.00000000     289 ORBIT IGS14 BHN ESOC                    
## 2156 345600.00000000   300.00000000 59340 0.0000000000000                    
+  114   G13G28G21G22G07G05G20G31G17G15G16G29G12G19G02G25G01                    
+        G30G24G27G06G09G03G32G08G10G04G18G23G14R09R11R20R19                    
+        R13R01R22R16R08R03R07R02R17R18R21R05R15R12R04R24E11                    
+        E12E19E18E14E26E24E30E08E09E01E02E07E03E04E05E21E25                    
+        E27E31E36E13E15E33C11C12C14C19C20C27C28C22C21C29C30                    
+        C23C24C26C25C32C33C35C34C36C37C46C45C44C43C41C42C06                    
+        C07C08C09C10C13C16C38C39C40J01J02J03  0  0  0  0  0                    
++         4  5  5  4  4  5  5  4  5  5  5  5  5  5  5  5  4                    
++         4  5  4  5  4  5  4  4  5  4  5  5  5  8  5  6  6                    
++         5  6  6  6  6  5  5  5  5  5  5  7  5  5  4  5  5                    
++         5  5  5  5  5  5  5  5  4  5  5  5  4  4  4  5  5                    
++         4  5  5  5  5  5  5  5  5  5  5  5  5  5  5  5  5                    
++         5  5  5  5  5  5  5  5  5  5  6  6  5  5  5  5  5                    
++         5  6  6  6  6  6  8  7  8  6  6  7  0  0  0  0  0                    
%c M  cc GPS ccc cccc cccc cccc cccc ccccc ccccc ccccc ccccc                    
%c cc cc ccc ccc cccc cccc cccc cccc ccccc ccccc ccccc ccccc                    
%f  0.0000000  0.000000000  0.00000000000  0.000000000000000                    
%f  0.0000000  0.000000000  0.00000000000  0.000000000000000                    
%i    0    0    0    0      0      0      0      0         0                    
%i    0    0    0    0      0      0      0      0         0                    
/* CCCCCCCCCCCCCCCCCCCCCCCCCCCCCCCCCCCCCCCCCCCCCCCCCCCCCCCCCCCCCCCCCCCCCCCCCCCCC
/* CCCCCCCCCCCCCCCCCCCCCCCCCCCCCCCCCCCCCCCCCCCCCCCCCCCCCCCCCCCCCCCCCCCCCCCCCCCCC
/* CCCCCCCCCCCCCCCCCCCCCCCCCCCCCCCCCCCCCCCCCCCCCCCCCCCCCCCCCCCCCCCCCCCCCCCCCCCCC
/* PCV:IGS14      OL/AL:EOT11A   NONE     YN ORB:CoN CLK:CoN                    
*  2021  5  6  5 40  0.00000000                                                 
PG13  22085.425745  11736.111860   9005.428068    128.530560                    
PG28   4799.052498  14436.006898  22328.956100    575.813903                    
PG21 -15285.621361   5607.948850  21622.776710    116.130219                    
PG22 -24151.752046   7989.701848   7477.807403   -621.231480                    
PG07  -7096.094899  24302.225441  -6786.551983    142.830895                    
PG05  23627.992127  -2475.970970 -12220.116680    -41.114862                    
PG20  22380.476228 -13931.484677  -1007.758304    522.472609                    
PG31  -8738.880381 -19660.029150 -15348.679884   -115.669648                    
PG17   9113.803510  20106.332528  15192.067061    437.841836                    
PG15  22262.013004   -264.978722  14376.647003   -151.344237                    
PG16 -21977.131335  -2979.685123 -15195.638553   -320.714023                    
PG29   6726.716441 -13363.547272 -21990.565755   -342.206074                    
PG12  24492.194955 -10053.611126   -819.316420    -37.263576                    
PG19  16129.649355  19958.808132   6784.881265     -3.688769                    
PG02  13312.384665  11366.461062 -19309.874564   -601.828922                    
PG25  16634.954300 -16990.727154 -11809.592827    131.910226                    
PG01 -13212.601529  14076.826141  17822.090704    697.130054                    
PG30   1510.887318  25743.551237   5878.255225   -422.336341                    
PG24  14775.856653  -8860.954427  19870.209586     59.663658                    
PG27 -23325.467987 -12000.257283   5110.586896   -125.169528                    
PG06   6851.673687  22007.066340 -13087.043967     13.110276                    
PG09  -6035.399444  14387.105580 -21553.124248   -343.698605                    
PG03 -22975.461570  12922.512882  -2786.964731   -156.236848                    
PG32 -12295.889748 -19679.484118  13187.321267     21.641879                    
PG08 -21981.223620  -2337.969450  14935.265225    -20.135028                    
PG10  -1371.024996 -15678.566709  21473.045895   -116.263123                    
PG04 -16356.128298   5440.251398 -20215.175555   -195.095390                    
PG18   5171.328128 -25778.741158  -3522.063457    350.970380                    
PG23  10656.509404 -18024.387873  16292.302241    108.912224                    
PG14    -48.292378  16118.397637  21095.845403     89.353460                    
PR09  17217.719570 -10396.280559  15748.505449     -8.548723                    
PR11   4471.117745 -19166.101877 -16225.861140     -2.462198                    
PR20  11800.967757   3042.684654 -22396.783357    -48.599629                    
PR19  12223.287655  20413.490542  -9196.278938   -142.582082                    
PR13 -16900.288954   9937.588987 -16335.627056    -54.364141                    
PR01 -19811.919922  -8591.252127  13571.730787     78.993119                    
PR22  -6852.837154 -23897.571074  -5960.942373   -111.335786                    
PR16   9924.724123   5227.631185  22880.204562    -14.742007                    
PR08  -5622.205322 -11342.487797  22208.289329    -58.875345                    
PR03 -13189.161567   8093.867479 -20245.335342     35.430949                    
PR07  12448.166767  -8369.062527  20662.099357    -42.501424                    
PR02 -24602.208380     75.762495  -6801.449082    477.514144                    
PR17  -3543.902755  15227.659225  20170.093470    421.663416                    
PR18   6364.430574  23654.887531   7018.368588     75.528166                    
PR21   2844.751833 -16107.548889 -19569.940187   -206.867517                    
PR05  21100.457939   8217.655994 -11706.694068     71.211870                    
PR15  -4305.259770  18933.122720  16559.649059    103.981014                    
PR12  -9083.957751  -6144.082207 -23006.817328    226.589306                    
PR04   5558.333407  11194.847613 -22202.357608     85.523131                    
PR24 -12081.815608  -1971.648440  22390.025537     41.541825                    
PE11  -9195.280187  21689.707264  17898.335848   6014.494157                    
PE12 -16218.615967    596.905834  24752.834785   5224.747059                    
PE19 -22921.749000 -16634.309845   8620.794178    269.827181                    
PE18  25837.807897  14087.790766  -6617.742833  -1555.420475                    
PE14 -15473.527264 -21043.635014  -8385.945591  -1421.253364                    
PE26  -3363.011092 -29410.788153   -142.198724   1843.392492                    
PE24 -21150.417955  19983.012726   5481.970054   -884.891123                    
PE30  25437.512078  -7556.309417  13089.875072   2968.300030                    
PE08  26968.036849   2540.539131  11959.020365   6006.619761                    
PE09 -13643.381258  11927.049422 -23392.129237   5677.342243                    
PE01 -15052.971168  -8913.337326 -23880.094148  -1101.813999                    
PE02  15138.649515   8824.292545  23849.162417    217.104144                    
PE07  13946.094925 -11880.549644  23263.544627   -534.251774                    
PE03  24266.886266  15661.767639  -6510.120964   -427.834973                    
PE04 -27066.617537  -2870.262877 -11620.510640   -764.942687                    
PE05   7156.307189  19462.380614 -21115.587246   -283.225127                    
PE21   3379.128978 -20290.333155 -21288.210861   -663.304340                    
PE25  -3585.923886  20359.054047  21188.787842   -532.981583                    
PE27  20560.834843 -20348.353931  -6255.329192    -26.304696                    
PE31 -25540.608751   8453.101002 -12343.818310   -480.871620                    
PE36   2996.565201  29425.926665    936.088258   -203.245954                    
PE13   9295.398393 -21393.190687 -18228.977892    416.005425                    
PE15  16130.996284   -718.700278 -24803.769855    815.784767                    
PE33 -13459.251296 -20355.207358  16766.028526   -468.289302                    
PC11  -6778.650889  16086.277803  21837.191536    324.571651                    
PC12 -17841.593669  -1678.232819  21416.576876    896.076325                    
PC14 -17381.688486  13232.527008 -17299.393685    654.327599                    
PC19   7139.989296 -15718.050472  21961.621702    824.321310                    
PC20  23740.193731  -9433.131005  11294.708842   -929.738178                    
PC27  20108.408971  11093.215433 -15860.743864    526.952356                    
PC28  14683.234294  23723.736884    638.651634    -77.889090                    
PC22 -14080.754010 -13111.650204  20210.899361   -959.254383                    
PC21 -26919.539313  -2904.283186   6726.570478   -944.056607                    
PC29  -1491.213760 -22333.694029 -16679.160710    388.361363                    
PC30  13767.123289  -7991.458355 -22927.365952    465.584852                    
PC23   5372.360014  19635.982607  19089.215420   -900.942209                    
PC24 -18544.950019  16539.534669 -12729.728844   -839.571171                    
PC26 -17058.260350   -774.446065 -22084.996742    911.022942                    
PC25  -8305.369521  26146.431957   5162.472599   -921.529012                    
PC32  26969.838022   2660.150988  -6664.217424   -937.371410                    
PC33  -7103.566515  15755.118173 -21893.566781   -940.288426                    
PC35 -15310.034866 -23335.925191   -977.577334   -294.174540                    
PC34 -13371.539072   8643.217683  22906.457553   -679.967461                    
PC36   9173.828487 -25910.605753  -4802.862183   -727.783786                    
PC37  16675.527850   2181.455737  22282.488595   -899.414510                    
PC46  18233.071256 -17370.879224  11992.944079    283.910702                    
PC45  -5409.169804 -19489.219156 -19215.981701    432.526601                    
PC44 -20565.219237 -10615.590563  15608.032686    173.462989                    
PC43    873.995562  22136.388686  16943.815377   -717.461802                    
PC41  13868.101534  13171.415162 -20265.595957   -945.196444                    
PC42 -24165.747022   9029.097146 -10569.784994   -917.412909                    
PC06  -8039.329958  26112.634750 -31511.844342    353.219929                    
PC07 -23069.387786  26023.824301  23744.443111   -192.960640                    
PC08 -17211.217219  38176.981968   6494.306149   -890.355571                    
PC09   5285.307391  34510.120113 -23021.753744    544.507200                    
PC10  -6921.423186  27854.534951  30983.437051    -46.678220                    
PC13  -8762.008260  40837.868757  -6546.268386    249.572897                    
PC16  -4388.380911  28271.937243 -30769.309444   -821.710023                    
PC38 -14244.699504  39717.562059   1755.018027    146.815964                    
PC39      3.111934  29887.041504 -29658.221857     30.825529                    
PC40 -14267.068424  22785.615707  32457.809268    158.096438                    
PJ01 -32316.934502  14814.823203 -18032.058967   -374.822787                    
PJ02 -28278.124822  31362.663861   5766.162377      7.325129                    
PJ03 -25669.940291  23011.165451  29338.439797     -4.818228                    
EOF                                                                             
